1 53906U 22119W   22282.83334491 -.00097037  00000-0 -69189-3 0  9993
2 53906  53.2187 179.4022 0001840  40.2048 172.9073 15.73301621  2771